STARLINK-1481_new
1 15742C 20038N   21326.12622138 -.00019209  00000-0 -12870-2 0  3261
2 15742  53.0538  78.1733 0001245  84.9708 332.2239 15.06418989    11
STARLINK-1481_old
1 25742C 20038N   21325.17638004  .00005126  00000-0  34347-3 0  3258
2 25742  53.0534  82.4372 0001326  88.1808 215.1372 15.06394087    10
